GSAT0202 (PRN E14)      
1 40129U 14050B   17345.12223843 -.00000119  00000-0  00000-0 0  9993
2 40129  50.4476  37.1246 1636428  70.5130 306.4462  1.85520588 22789
